{
    "links": {
        "self": "http://www.neowsapp.com/rest/v1/neo/3714120?api_key=iIulBulltgU6a56xZRHN4H3l9WmuAYTsLGpBGhQ2"
    },
    "id": "3714120",
    "neo_reference_id": "3714120",
    "name": "(2015 FD36)",
    "designation": "2015 FD36",
    "nasa_jpl_url": "http://ssd.jpl.nasa.gov/sbdb.cgi?sstr=3714120",
    "absolute_magnitude_h": 26.2,
    "estimated_diameter": {
        "kilometers": {
            "estimated_diameter_min": 0.0152951935,
            "estimated_diameter_max": 0.0342010925
        },
        "meters": {
            "estimated_diameter_min": 15.2951935344,
            "estimated_diameter_max": 34.201092472
        },
        "miles": {
            "estimated_diameter_min": 0.0095039897,
            "estimated_diameter_max": 0.021251567
        },
        "feet": {
            "estimated_diameter_min": 50.1810827555,
            "estimated_diameter_max": 112.2083122258
        }
    },
    "is_potentially_hazardous_asteroid": false,
    "close_approach_data": [
        {
            "close_approach_date": "2013-02-09",
            "close_approach_date_full": "2013-Feb-09 04:43",
            "epoch_date_close_approach": 1360384980000,
            "relative_velocity": {
                "kilometers_per_second": "10.6477114834",
                "kilometers_per_hour": "38331.76134019",
                "miles_per_hour": "23817.8658171864"
            },
            "miss_distance": {
                "astronomical": "0.2724612605",
                "lunar": "105.9874303345",
                "kilometers": "40759624.228315135",
                "miles": "25326856.073553463"
            },
            "orbiting_body": "Earth"
        },
        {
            "close_approach_date": "2015-03-15",
            "close_approach_date_full": "2015-Mar-15 16:54",
            "epoch_date_close_approach": 1426438440000,
            "relative_velocity": {
                "kilometers_per_second": "4.9191867785",
                "kilometers_per_hour": "17709.0724025113",
                "miles_per_hour": "11003.7289047716"
            },
            "miss_distance": {
                "astronomical": "0.0633086842",
                "lunar": "24.6270781538",
                "kilometers": "9470844.308822654",
                "miles": "5884909.7666104652"
            },
            "orbiting_body": "Earth"
        },
        {
            "close_approach_date": "2017-04-10",
            "close_approach_date_full": "2017-Apr-10 21:32",
            "epoch_date_close_approach": 1491859920000,
            "relative_velocity": {
                "kilometers_per_second": "11.2144823753",
                "kilometers_per_hour": "40372.1365510462",
                "miles_per_hour": "25085.6756252875"
            },
            "miss_distance": {
                "astronomical": "0.2595063254",
                "lunar": "100.9479605806",
                "kilometers": "38821593.531366898",
                "miles": "24122619.6396552724"
            },
            "orbiting_body": "Earth"
        }
    ],
    "orbital_data": {
        "orbit_id": "8",
        "orbit_determination_date": "2017-04-06 08:34:52",
        "first_observation_date": "2015-03-21",
        "last_observation_date": "2015-04-11",
        "data_arc_in_days": 21,
        "observations_used": 20,
        "orbit_uncertainty": "8",
        "minimum_orbit_intersection": ".0627315",
        "jupiter_tisserand_invariant": "4.271",
        "epoch_osculation": "2457104.5",
        "eccentricity": ".347930586322646",
        "semi_major_axis": "1.609341271511471",
        "inclination": "5.875829466808022",
        "ascending_node_longitude": "187.0435063076639",
        "orbital_period": "745.7111730598608",
        "perihelion_distance": "1.049402219321252",
        "perihelion_argument": "337.9967526557008",
        "aphelion_distance": "2.16928032370169",
        "perihelion_time": "2457087.915302416561",
        "mean_anomaly": "8.006439149274712",
        "mean_motion": ".4827606357603839",
        "equinox": "J2000",
        "orbit_class": {
            "orbit_class_type": "AMO",
            "orbit_class_description": "Near-Earth asteroid orbits similar to that of 1221 Amor",
            "orbit_class_range": "1.017 AU < q (perihelion) < 1.3 AU"
        }
    },
    "is_sentry_object": false
}